{"type": "FeatureCollection", "features": [ {"type": "Feature", "properties": {"norad_id": 33841, "name": "COSMOS 2251 DEB", "group": "cosmos-2251-debris", "lat": -46.692347740546474, "lon": 113.09724364251201, "alt_km": 780.6831413162563, "timestamp": "2025-12-14T03:55:53.180736+00:00", "meta": {"OBJECT_NAME": "COSMOS 2251 DEB", "OBJECT_ID": "1993-036CJ", "EPOCH": "2025-12-13T05:54:44.980416", "MEAN_MOTION": 14.37862322, "ECCENTRICITY": 0.00205636, "INCLINATION": 74.0378, "RA_OF_ASC_NODE": 277.1091, "ARG_OF_PERICENTER": 357.3837, "MEAN_ANOMALY": 164.7951, "EPHEMERIS_TYPE": 0, "CLASSIFICATION_TYPE": "U", "NORAD_CAT_ID": 33841, "ELEMENT_SET_NO": 999, "REV_AT_EPOCH": 88121, "BSTAR": 0.00038694381, "MEAN_MOTION_DOT": 1.144e-05, "MEAN_MOTION_DDOT": 0}, "tle": {"line1": "1 33841U 93036CJ  25347.24635394  .00001144  00000+0  38694-3 0  9999", "line2": "2 33841  74.0378 277.1091 0020563 357.3837 164.7951 14.37862322881210"}}, "geometry": {"type": "Point", "coordinates": [113.09724364251201, -46.692347740546474]}}, {"type": "Feature", "properties": {"norad_id": 33842, "name": "COSMOS 2251 DEB", "group": "cosmos-2251-debris", "lat": 29.82008368178496, "lon": 27.563897305142653, "alt_km": 781.3263711665213, "timestamp": "2025-12-14T03:55:53.180746+00:00", "meta": {"OBJECT_NAME": "COSMOS 2251 DEB", "OBJECT_ID": "1993-036CK", "EPOCH": "2025-12-13T02:16:45.782976", "MEAN_MOTION": 14.42698763, "ECCENTRICITY": 0.00473045, "INCLINATION": 74.0327, "RA_OF_ASC_NODE": 218.9925, "ARG_OF_PERICENTER": 326.2458, "MEAN_ANOMALY": 33.5688, "EPHEMERIS_TYPE": 0, "CLASSIFICATION_TYPE": "U", "NORAD_CAT_ID": 33842, "ELEMENT_SET_NO": 999, "REV_AT_EPOCH": 88342, "BSTAR": 0.00043233719, "MEAN_MOTION_DOT": 1.431e-05, "MEAN_MOTION_DDOT": 0}, "tle": {"line1": "1 33842U 93036CK  25347.09497434  .00001431  00000+0  43234-3 0  9999", "line2": "2 33842  74.0327 218.9925 0047304 326.2458  33.5688 14.42698763883427"}}, "geometry": {"type": "Point", "coordinates": [27.563897305142653, 29.82008368178496]}}, {"type": "Feature", "properties": {"norad_id": 33844, "name": "COSMOS 2251 DEB", "group": "cosmos-2251-debris", "lat": 31.51800648672505, "lon": 60.26868900360504, "alt_km": 750.833293564353, "timestamp": "2025-12-14T03:55:53.180757+00:00", "meta": {"OBJECT_NAME": "COSMOS 2251 DEB", "OBJECT_ID": "1993-036CM", "EPOCH": "2025-12-13T06:18:42.374016", "MEAN_MOTION": 14.33718314, "ECCENTRICITY": 0.00470658, "INCLINATION": 74.067, "RA_OF_ASC_NODE": 51.8235, "ARG_OF_PERICENTER": 73.621, "MEAN_ANOMALY": 352.1298, "EPHEMERIS_TYPE": 0, "CLASSIFICATION_TYPE": "U", "NORAD_CAT_ID": 33844, "ELEMENT_SET_NO": 999, "REV_AT_EPOCH": 87733, "BSTAR": 0.0005631788, "MEAN_MOTION_DOT": 1.558e-05, "MEAN_MOTION_DDOT": 0}, "tle": {"line1": "1 33844U 93036CM  25347.26299044  .00001558  00000+0  56318-3 0  9994", "line2": "2 33844  74.0670  51.8235 0047065  73.6210 352.1298 14.33718314877336"}}, "geometry": {"type": "Point", "coordinates": [60.26868900360504, 31.51800648672505]}}, {"type": "Feature", "properties": {"norad_id": 33848, "name": "COSMOS 2251 DEB", "group": "cosmos-2251-debris", "lat": -73.3839641889505, "lon": -111.37875160342993, "alt_km": 775.994548606358, "timestamp": "2025-12-14T03:55:53.180767+00:00", "meta": {"OBJECT_NAME": "COSMOS 2251 DEB", "OBJECT_ID": "1993-036CR", "EPOCH": "2025-12-13T06:49:37.437312", "MEAN_MOTION": 14.44068613, "ECCENTRICITY": 0.00411353, "INCLINATION": 74.0326, "RA_OF_ASC_NODE": 356.6294, "ARG_OF_PERICENTER": 52.2771, "MEAN_ANOMALY": 323.7713, "EPHEMERIS_TYPE": 0, "CLASSIFICATION_TYPE": "U", "NORAD_CAT_ID": 33848, "ELEMENT_SET_NO": 999, "REV_AT_EPOCH": 87839, "BSTAR": 0.0016448721, "MEAN_MOTION_DOT": 5.666e-05, "MEAN_MOTION_DDOT": 0}, "tle": {"line1": "1 33848U 93036CR  25347.28446108  .00005666  00000+0  16449-2 0  9999", "line2": "2 33848  74.0326 356.6294 0041135  52.2771 323.7713 14.44068613878391"}}, "geometry": {"type": "Point", "coordinates": [-111.37875160342993, -73.3839641889505]}}, {"type": "Feature", "properties": {"norad_id": 33892, "name": "COSMOS 2251 DEB", "group": "cosmos-2251-debris", "lat": 72.33543951907588, "lon": 165.34403527932088, "alt_km": 751.4627322244096, "timestamp": "2025-12-14T03:55:53.180778+00:00", "meta": {"OBJECT_NAME": "COSMOS 2251 DEB", "OBJECT_ID": "1993-036CV", "EPOCH": "2025-12-12T18:30:23.008896", "MEAN_MOTION": 14.23339331, "ECCENTRICITY": 0.01128404, "INCLINATION": 73.8026, "RA_OF_ASC_NODE": 102.0002, "ARG_OF_PERICENTER": 133.2353, "MEAN_ANOMALY": 17.0918, "EPHEMERIS_TYPE": 0, "CLASSIFICATION_TYPE": "U", "NORAD_CAT_ID": 33892, "ELEMENT_SET_NO": 999, "REV_AT_EPOCH": 86955, "BSTAR": 0.0013177654, "MEAN_MOTION_DOT": 3.165e-05, "MEAN_MOTION_DDOT": 0}, "tle": {"line1": "1 33892U 93036CV  25346.77109964  .00003165  00000+0  13178-2 0  9995", "line2": "2 33892  73.8026 102.0002 0112840 133.2353  17.0918 14.23339331869555"}}, "geometry": {"type": "Point", "coordinates": [165.34403527932088, 72.33543951907588]}}, {"type": "Feature", "properties": {"norad_id": 33894, "name": "COSMOS 2251 DEB", "group": "cosmos-2251-debris", "lat": -5.747773649768172, "lon": 168.55770655609874, "alt_km": 1084.0433187440585, "timestamp": "2025-12-14T03:55:53.180788+00:00", "meta": {"OBJECT_NAME": "COSMOS 2251 DEB", "OBJECT_ID": "1993-036CX", "EPOCH": "2025-12-12T23:40:19.599744", "MEAN_MOTION": 13.21305125, "ECCENTRICITY": 0.05795168, "INCLINATION": 73.7678, "RA_OF_ASC_NODE": 348.6983, "ARG_OF_PERICENTER": 268.0787, "MEAN_ANOMALY": 85.3877, "EPHEMERIS_TYPE": 0, "CLASSIFICATION_TYPE": "U", "NORAD_CAT_ID": 33894, "ELEMENT_SET_NO": 999, "REV_AT_EPOCH": 80711, "BSTAR": 0.0024730046, "MEAN_MOTION_DOT": 2.441e-05, "MEAN_MOTION_DDOT": 0}, "tle": {"line1": "1 33894U 93036CX  25346.98633796  .00002441  00000+0  24730-2 0  9997", "line2": "2 33894  73.7678 348.6983 0579516 268.0787  85.3877 13.21305125807117"}}, "geometry": {"type": "Point", "coordinates": [168.55770655609874, -5.747773649768172]}}, {"type": "Feature", "properties": {"norad_id": 33896, "name": "COSMOS 2251 DEB", "group": "cosmos-2251-debris", "lat": 46.031465560007, "lon": -43.482403502344404, "alt_km": 910.706466922109, "timestamp": "2025-12-14T03:55:53.180799+00:00", "meta": {"OBJECT_NAME": "COSMOS 2251 DEB", "OBJECT_ID": "1993-036CZ", "EPOCH": "2025-12-13T06:09:31.097952", "MEAN_MOTION": 14.19041399, "ECCENTRICITY": 0.01265089, "INCLINATION": 73.7657, "RA_OF_ASC_NODE": 155.7446, "ARG_OF_PERICENTER": 331.3572, "MEAN_ANOMALY": 206.8725, "EPHEMERIS_TYPE": 0, "CLASSIFICATION_TYPE": "U", "NORAD_CAT_ID": 33896, "ELEMENT_SET_NO": 999, "REV_AT_EPOCH": 86747, "BSTAR": 0.00094113577, "MEAN_MOTION_DOT": 2.101e-05, "MEAN_MOTION_DDOT": 0}, "tle": {"line1": "1 33896U 93036CZ  25347.25660993  .00002101  00000+0  94114-3 0  9996", "line2": "2 33896  73.7657 155.7446 0126508 331.3572 206.8725 14.19041399867477"}}, "geometry": {"type": "Point", "coordinates": [-43.482403502344404, 46.031465560007]}}, {"type": "Feature", "properties": {"norad_id": 33899, "name": "COSMOS 2251 DEB", "group": "cosmos-2251-debris", "lat": 5.6451724764925855, "lon": 84.62632770119988, "alt_km": 721.4844005736595, "timestamp": "2025-12-14T03:55:53.180809+00:00", "meta": {"OBJECT_NAME": "COSMOS 2251 DEB", "OBJECT_ID": "1993-036DC", "EPOCH": "2025-12-12T17:58:00.463872", "MEAN_MOTION": 14.6119176, "ECCENTRICITY": 0.00567285, "INCLINATION": 74.0537, "RA_OF_ASC_NODE": 85.7085, "ARG_OF_PERICENTER": 148.4646, "MEAN_ANOMALY": 336.6309, "EPHEMERIS_TYPE": 0, "CLASSIFICATION_TYPE": "U", "NORAD_CAT_ID": 33899, "ELEMENT_SET_NO": 999, "REV_AT_EPOCH": 88839, "BSTAR": 0.0015173738, "MEAN_MOTION_DOT": 7.625e-05, "MEAN_MOTION_DDOT": 0}, "tle": {"line1": "1 33899U 93036DC  25346.74861648  .00007625  00000+0  15174-2 0  9996", "line2": "2 33899  74.0537  85.7085 0056728 148.4646 336.6309 14.61191760888396"}}, "geometry": {"type": "Point", "coordinates": [84.62632770119988, 5.6451724764925855]}}, {"type": "Feature", "properties": {"norad_id": 33900, "name": "COSMOS 2251 DEB", "group": "cosmos-2251-debris", "lat": 25.56096418644733, "lon": 5.02864025535923, "alt_km": 714.8369172646917, "timestamp": "2025-12-14T03:55:53.180819+00:00", "meta": {"OBJECT_NAME": "COSMOS 2251 DEB", "OBJECT_ID": "1993-036DD", "EPOCH": "2025-12-13T03:24:09.641664", "MEAN_MOTION": 14.58349575, "ECCENTRICITY": 0.00468076, "INCLINATION": 74.0195, "RA_OF_ASC_NODE": 359.0972, "ARG_OF_PERICENTER": 151.1147, "MEAN_ANOMALY": 272.5722, "EPHEMERIS_TYPE": 0, "CLASSIFICATION_TYPE": "U", "NORAD_CAT_ID": 33900, "ELEMENT_SET_NO": 999, "REV_AT_EPOCH": 89042, "BSTAR": 0.00059329056, "MEAN_MOTION_DOT": 2.759e-05, "MEAN_MOTION_DDOT": 0}, "tle": {"line1": "1 33900U 93036DD  25347.14177826  .00002759  00000+0  59329-3 0  9996", "line2": "2 33900  74.0195 359.0972 0046807 151.1147 272.5722 14.58349575890424"}}, "geometry": {"type": "Point", "coordinates": [5.02864025535923, 25.56096418644733]}}, {"type": "Feature", "properties": {"norad_id": 33901, "name": "COSMOS 2251 DEB", "group": "cosmos-2251-debris", "lat": -53.11121046637223, "lon": 23.450019168792124, "alt_km": 536.4495864359078, "timestamp": "2025-12-14T03:55:53.180829+00:00", "meta": {"OBJECT_NAME": "COSMOS 2251 DEB", "OBJECT_ID": "1993-036DE", "EPOCH": "2025-12-13T06:00:36.495360", "MEAN_MOTION": 15.16047047, "ECCENTRICITY": 0.00315702, "INCLINATION": 73.774, "RA_OF_ASC_NODE": 48.2147, "ARG_OF_PERICENTER": 180.2369, "MEAN_ANOMALY": 179.8816, "EPHEMERIS_TYPE": 0, "CLASSIFICATION_TYPE": "U", "NORAD_CAT_ID": 33901, "ELEMENT_SET_NO": 999, "REV_AT_EPOCH": 89521, "BSTAR": 0.0051520399, "MEAN_MOTION_DOT": 0.00101724, "MEAN_MOTION_DDOT": 0}, "tle": {"line1": "1 33901U 93036DE  25347.25042240  .00101724  00000+0  51520-2 0  9996", "line2": "2 33901  73.7740  48.2147 0031570 180.2369 179.8816 15.16047047895217"}}, "geometry": {"type": "Point", "coordinates": [23.450019168792124, -53.11121046637223]}}]}